{
  "type": "FeatureCollection",
  "features": [
    {
      "type": "Feature",
      "properties": {
        "norad_id": 36036,
        "name": "SMOS",
        "group": "resource",
        "lat": -57.12754830301705,
        "lon": -13.649042209387826,
        "alt_km": 767.0923154845132,
        "timestamp": "2025-12-20T16:47:35.948183+00:00",
        "meta_object_name": "SMOS",
        "meta_object_id": "2009-059A",
        "meta_epoch": "2025-12-20T12:21:18.783072",
        "meta_mean_motion": 14.39747686,
        "meta_eccentricity": 0.0001079,
        "meta_inclination": 98.438,
        "meta_ra_of_asc_node": 179.4481,
        "meta_arg_of_pericenter": 83.7466,
        "meta_mean_anomaly": 276.3845,
        "meta_ephemeris_type": 0,
        "meta_classification_type": "U",
        "meta_norad_cat_id": 36036,
        "meta_element_set_no": 999,
        "meta_rev_at_epoch": 84774,
        "meta_bstar": 0.00010403,
        "meta_mean_motion_dot": 2.82e-06,
        "meta_mean_motion_ddot": 0,
        "tle_line1": "1 36036U 09059A   25354.51480073  .00000282  00000+0  10403-3 0  9990",
        "tle_line2": "2 36036  98.4380 179.4481 0001079  83.7466 276.3845 14.39747686847747"
      },
      "geometry": {
        "type": "Point",
        "coordinates": [
          -13.649042209387826,
          -57.12754830301705
        ]
      }
    },
    {
      "type": "Feature",
      "properties": {
        "norad_id": 36110,
        "name": "YAOGAN-7",
        "group": "resource",
        "lat": 68.44866246375668,
        "lon": -144.51405619545298,
        "alt_km": 646.1515482669702,
        "timestamp": "2025-12-20T16:47:35.948193+00:00",
        "meta_object_name": "YAOGAN-7",
        "meta_object_id": "2009-069A",
        "meta_epoch": "2025-12-20T06:43:35.107680",
        "meta_mean_motion": 14.77742599,
        "meta_eccentricity": 0.0023367,
        "meta_inclination": 98.0296,
        "meta_ra_of_asc_node": 236.0101,
        "meta_arg_of_pericenter": 255.5518,
        "meta_mean_anomaly": 104.3099,
        "meta_ephemeris_type": 0,
        "meta_classification_type": "U",
        "meta_norad_cat_id": 36110,
        "meta_element_set_no": 999,
        "meta_rev_at_epoch": 86320,
        "meta_bstar": 7.0706e-05,
        "meta_mean_motion_dot": 4.56e-06,
        "meta_mean_motion_ddot": 0,
        "tle_line1": "1 36110U 09069A   25354.28026745  .00000456  00000+0  70706-4 0  9996",
        "tle_line2": "2 36110  98.0296 236.0101 0023367 255.5518 104.3099 14.77742599863202"
      },
      "geometry": {
        "type": "Point",
        "coordinates": [
          -144.51405619545298,
          68.44866246375668
        ]
      }
    },
    {
      "type": "Feature",
      "properties": {
        "norad_id": 36605,
        "name": "TANDEM-X",
        "group": "resource",
        "lat": 59.344837755246836,
        "lon": -12.781345586479683,
        "alt_km": 501.4799943152657,
        "timestamp": "2025-12-20T16:47:35.948204+00:00",
        "meta_object_name": "TANDEM-X",
        "meta_object_id": "2010-030A",
        "meta_epoch": "2025-12-19T12:04:27.806304",
        "meta_mean_motion": 15.19152689,
        "meta_eccentricity": 0.0001806,
        "meta_inclination": 97.4444,
        "meta_ra_of_asc_node": 358.7845,
        "meta_arg_of_pericenter": 78.9569,
        "meta_mean_anomaly": 281.1868,
        "meta_ephemeris_type": 0,
        "meta_classification_type": "U",
        "meta_norad_cat_id": 36605,
        "meta_element_set_no": 999,
        "meta_rev_at_epoch": 85936,
        "meta_bstar": 3.4902e-05,
        "meta_mean_motion_dot": 6.66e-06,
        "meta_mean_motion_ddot": 0,
        "tle_line1": "1 36605U 10030A   25353.50309961  .00000666  00000+0  34902-4 0  9994",
        "tle_line2": "2 36605  97.4444 358.7845 0001806  78.9569 281.1868 15.19152689859365"
      },
      "geometry": {
        "type": "Point",
        "coordinates": [
          -12.781345586479683,
          59.344837755246836
        ]
      }
    },
    {
      "type": "Feature",
      "properties": {
        "norad_id": 36795,
        "name": "CARTOSAT-2B",
        "group": "resource",
        "lat": 25.166085654131507,
        "lon": 39.786430314023704,
        "alt_km": 624.618670175003,
        "timestamp": "2025-12-20T16:47:35.948214+00:00",
        "meta_object_name": "CARTOSAT-2B",
        "meta_object_id": "2010-035A",
        "meta_epoch": "2025-12-20T11:48:25.065792",
        "meta_mean_motion": 14.78734847,
        "meta_eccentricity": 0.0012814,
        "meta_inclination": 97.7847,
        "meta_ra_of_asc_node": 43.2707,
        "meta_arg_of_pericenter": 53.662,
        "meta_mean_anomaly": 306.5772,
        "meta_ephemeris_type": 0,
        "meta_classification_type": "U",
        "meta_norad_cat_id": 36795,
        "meta_element_set_no": 999,
        "meta_rev_at_epoch": 83344,
        "meta_bstar": 8.343e-05,
        "meta_mean_motion_dot": 5.63e-06,
        "meta_mean_motion_ddot": 0,
        "tle_line1": "1 36795U 10035A   25354.49195678  .00000563  00000+0  83430-4 0  9992",
        "tle_line2": "2 36795  97.7847  43.2707 0012814  53.6620 306.5772 14.78734847833440"
      },
      "geometry": {
        "type": "Point",
        "coordinates": [
          39.786430314023704,
          25.166085654131507
        ]
      }
    },
    {
      "type": "Feature",
      "properties": {
        "norad_id": 36834,
        "name": "YAOGAN-10",
        "group": "resource",
        "lat": -80.9212249281444,
        "lon": 74.97285468140026,
        "alt_km": 623.0344816865554,
        "timestamp": "2025-12-20T16:47:35.948224+00:00",
        "meta_object_name": "YAOGAN-10",
        "meta_object_id": "2010-038A",
        "meta_epoch": "2025-12-20T13:00:20.572992",
        "meta_mean_motion": 14.84635721,
        "meta_eccentricity": 0.0001433,
        "meta_inclination": 97.9134,
        "meta_ra_of_asc_node": 14.3045,
        "meta_arg_of_pericenter": 77.0028,
        "meta_mean_anomaly": 74.5011,
        "meta_ephemeris_type": 0,
        "meta_classification_type": "U",
        "meta_norad_cat_id": 36834,
        "meta_element_set_no": 999,
        "meta_rev_at_epoch": 83069,
        "meta_bstar": 0.00016461,
        "meta_mean_motion_dot": 1.338e-05,
        "meta_mean_motion_ddot": 0,
        "tle_line1": "1 36834U 10038A   25354.54190478  .00001338  00000+0  16461-3 0  9998",
        "tle_line2": "2 36834  97.9134  14.3045 0001433  77.0028  74.5011 14.84635721830696"
      },
      "geometry": {
        "type": "Point",
        "coordinates": [
          74.97285468140026,
          -80.9212249281444
        ]
      }
    },
    {
      "type": "Feature",
      "properties": {
        "norad_id": 37216,
        "name": "COSMO-SKYMED 4",
        "group": "resource",
        "lat": 52.29819973862248,
        "lon": 6.224695021547866,
        "alt_km": 616.9531459146519,
        "timestamp": "2025-12-20T16:47:35.948234+00:00",
        "meta_object_name": "COSMO-SKYMED 4",
        "meta_object_id": "2010-060A",
        "meta_epoch": "2025-12-20T12:58:56.073792",
        "meta_mean_motion": 14.82154722,
        "meta_eccentricity": 0.0001396,
        "meta_inclination": 97.8799,
        "meta_ra_of_asc_node": 175.7462,
        "meta_arg_of_pericenter": 84.6069,
        "meta_mean_anomaly": 275.5303,
        "meta_ephemeris_type": 0,
        "meta_classification_type": "U",
        "meta_norad_cat_id": 37216,
        "meta_element_set_no": 999,
        "meta_rev_at_epoch": 81810,
        "meta_bstar": 0.00010343,
        "meta_mean_motion_dot": 7.71e-06,
        "meta_mean_motion_ddot": 0,
        "tle_line1": "1 37216U 10060A   25354.54092678  .00000771  00000+0  10343-3 0  9994",
        "tle_line2": "2 37216  97.8799 175.7462 0001396  84.6069 275.5303 14.82154722818103"
      },
      "geometry": {
        "type": "Point",
        "coordinates": [
          6.224695021547866,
          52.29819973862248
        ]
      }
    },
    {
      "type": "Feature",
      "properties": {
        "norad_id": 37387,
        "name": "RESOURCESAT-2",
        "group": "resource",
        "lat": 19.96016150355137,
        "lon": -118.5644317870817,
        "alt_km": 823.2218836610355,
        "timestamp": "2025-12-20T16:47:35.948245+00:00",
        "meta_object_name": "RESOURCESAT-2",
        "meta_object_id": "2011-015A",
        "meta_epoch": "2025-12-20T10:58:38.510688",
        "meta_mean_motion": 14.21600119,
        "meta_eccentricity": 0.0006068,
        "meta_inclination": 98.7867,
        "meta_ra_of_asc_node": 57.9742,
        "meta_arg_of_pericenter": 21.8753,
        "meta_mean_anomaly": 338.2682,
        "meta_ephemeris_type": 0,
        "meta_classification_type": "U",
        "meta_norad_cat_id": 37387,
        "meta_element_set_no": 999,
        "meta_rev_at_epoch": 76078,
        "meta_bstar": 6.7141e-05,
        "meta_mean_motion_dot": 1.03e-06,
        "meta_mean_motion_ddot": 0,
        "tle_line1": "1 37387U 11015A   25354.45739017  .00000103  00000+0  67141-4 0  9997",
        "tle_line2": "2 37387  98.7867  57.9742 0006068  21.8753 338.2682 14.21600119760780"
      },
      "geometry": {
        "type": "Point",
        "coordinates": [
          -118.5644317870817,
          19.96016150355137
        ]
      }
    }
  ]
}